{
  "type": "FeatureCollection",
  "features": [
    {
      "type": "Feature",
      "properties": {
        "norad_id": 35618,
        "name": "IRIDIUM 33 DEB",
        "group": "iridium-33-debris",
        "lat": -56.51441286922107,
        "lon": -18.19364972784488,
        "alt_km": 708.103992794262,
        "timestamp": "2025-12-26T19:22:39.294037+00:00",
        "meta_object_name": "IRIDIUM 33 DEB",
        "meta_object_id": "1997-051QQ",
        "meta_epoch": "2025-12-26T06:24:30.352608",
        "meta_mean_motion": 14.52352312,
        "meta_eccentricity": 0.00279532,
        "meta_inclination": 86.3436,
        "meta_ra_of_asc_node": 347.5894,
        "meta_arg_of_pericenter": 336.1587,
        "meta_mean_anomaly": 23.8322,
        "meta_ephemeris_type": 0,
        "meta_classification_type": "U",
        "meta_norad_cat_id": 35618,
        "meta_element_set_no": 999,
        "meta_rev_at_epoch": 65590,
        "meta_bstar": 0.00055338246,
        "meta_mean_motion_dot": 2.283e-05,
        "meta_mean_motion_ddot": 0,
        "tle_line1": "1 35618U 97051QQ  25360.26701797  .00002283  00000+0  55338-3 0  9991",
        "tle_line2": "2 35618  86.3436 347.5894 0027953 336.1587  23.8322 14.52352312655907"
      },
      "geometry": {
        "type": "Point",
        "coordinates": [
          -18.19364972784488,
          -56.51441286922107
        ]
      }
    },
    {
      "type": "Feature",
      "properties": {
        "norad_id": 35620,
        "name": "IRIDIUM 33 DEB",
        "group": "iridium-33-debris",
        "lat": -63.00586424514558,
        "lon": -155.60074205454058,
        "alt_km": 760.5888001966659,
        "timestamp": "2025-12-26T19:22:39.294048+00:00",
        "meta_object_name": "IRIDIUM 33 DEB",
        "meta_object_id": "1997-051QS",
        "meta_epoch": "2025-12-26T07:59:16.151712",
        "meta_mean_motion": 14.38462656,
        "meta_eccentricity": 0.01380245,
        "meta_inclination": 86.3888,
        "meta_ra_of_asc_node": 211.721,
        "meta_arg_of_pericenter": 213.5543,
        "meta_mean_anomaly": 145.6858,
        "meta_ephemeris_type": 0,
        "meta_classification_type": "U",
        "meta_norad_cat_id": 35620,
        "meta_element_set_no": 999,
        "meta_rev_at_epoch": 60161,
        "meta_bstar": 0.0045008944,
        "meta_mean_motion_dot": 0.00015388,
        "meta_mean_motion_ddot": 0,
        "tle_line1": "1 35620U 97051QS  25360.33282583  .00015388  00000+0  45009-2 0  9992",
        "tle_line2": "2 35620  86.3888 211.7210 0138024 213.5543 145.6858 14.38462656601610"
      },
      "geometry": {
        "type": "Point",
        "coordinates": [
          -155.60074205454058,
          -63.00586424514558
        ]
      }
    },
    {
      "type": "Feature",
      "properties": {
        "norad_id": 35622,
        "name": "IRIDIUM 33 DEB",
        "group": "iridium-33-debris",
        "lat": 1.4828645164513858,
        "lon": 76.5661978002904,
        "alt_km": 550.703100067808,
        "timestamp": "2025-12-26T19:22:39.294058+00:00",
        "meta_object_name": "IRIDIUM 33 DEB",
        "meta_object_id": "1997-051QU",
        "meta_epoch": "2025-12-26T11:23:49.191360",
        "meta_mean_motion": 15.06193948,
        "meta_eccentricity": 0.00030166,
        "meta_inclination": 86.1995,
        "meta_ra_of_asc_node": 256.8291,
        "meta_arg_of_pericenter": 269.9417,
        "meta_mean_anomaly": 266.6305,
        "meta_ephemeris_type": 0,
        "meta_classification_type": "U",
        "meta_norad_cat_id": 35622,
        "meta_element_set_no": 999,
        "meta_rev_at_epoch": 87566,
        "meta_bstar": 0.0035480553,
        "meta_mean_motion_dot": 0.00052305,
        "meta_mean_motion_ddot": 0,
        "tle_line1": "1 35622U 97051QU  25360.47487490  .00052305  00000+0  35481-2 0  9996",
        "tle_line2": "2 35622  86.1995 256.8291 0003016 269.9417 266.6305 15.06193948875665"
      },
      "geometry": {
        "type": "Point",
        "coordinates": [
          76.5661978002904,
          1.4828645164513858
        ]
      }
    },
    {
      "type": "Feature",
      "properties": {
        "norad_id": 35628,
        "name": "IRIDIUM 33 DEB",
        "group": "iridium-33-debris",
        "lat": -76.6954700906115,
        "lon": -161.57153055093548,
        "alt_km": 669.9970825333048,
        "timestamp": "2025-12-26T19:22:39.294069+00:00",
        "meta_object_name": "IRIDIUM 33 DEB",
        "meta_object_id": "1997-051RA",
        "meta_epoch": "2025-12-26T06:45:19.101312",
        "meta_mean_motion": 14.67776082,
        "meta_eccentricity": 0.00092374,
        "meta_inclination": 86.3573,
        "meta_ra_of_asc_node": 3.0346,
        "meta_arg_of_pericenter": 290.0377,
        "meta_mean_anomaly": 69.9843,
        "meta_ephemeris_type": 0,
        "meta_classification_type": "U",
        "meta_norad_cat_id": 35628,
        "meta_element_set_no": 999,
        "meta_rev_at_epoch": 86645,
        "meta_bstar": 0.0014358993,
        "meta_mean_motion_dot": 8.215e-05,
        "meta_mean_motion_ddot": 0,
        "tle_line1": "1 35628U 97051RA  25360.28147108  .00008215  00000+0  14359-2 0  9992",
        "tle_line2": "2 35628  86.3573   3.0346 0009237 290.0377  69.9843 14.67776082866459"
      },
      "geometry": {
        "type": "Point",
        "coordinates": [
          -161.57153055093548,
          -76.6954700906115
        ]
      }
    },
    {
      "type": "Feature",
      "properties": {
        "norad_id": 35631,
        "name": "IRIDIUM 33 DEB",
        "group": "iridium-33-debris",
        "lat": -24.474684696425786,
        "lon": -163.42513568526476,
        "alt_km": 748.528771626181,
        "timestamp": "2025-12-26T19:22:39.294079+00:00",
        "meta_object_name": "IRIDIUM 33 DEB",
        "meta_object_id": "1997-051RD",
        "meta_epoch": "2025-12-25T01:14:45.811104",
        "meta_mean_motion": 14.47344148,
        "meta_eccentricity": 0.00192475,
        "meta_inclination": 86.3663,
        "meta_ra_of_asc_node": 15.6731,
        "meta_arg_of_pericenter": 81.4254,
        "meta_mean_anomaly": 341.8279,
        "meta_ephemeris_type": 0,
        "meta_classification_type": "U",
        "meta_norad_cat_id": 35631,
        "meta_element_set_no": 999,
        "meta_rev_at_epoch": 87375,
        "meta_bstar": 0.00038061169,
        "meta_mean_motion_dot": 1.417e-05,
        "meta_mean_motion_ddot": 0,
        "tle_line1": "1 35631U 97051RD  25359.05191911  .00001417  00000+0  38061-3 0  9994",
        "tle_line2": "2 35631  86.3663  15.6731 0019247  81.4254 341.8279 14.47344148873756"
      },
      "geometry": {
        "type": "Point",
        "coordinates": [
          -163.42513568526476,
          -24.474684696425786
        ]
      }
    },
    {
      "type": "Feature",
      "properties": {
        "norad_id": 35680,
        "name": "IRIDIUM 33 DEB",
        "group": "iridium-33-debris",
        "lat": -72.9923285401412,
        "lon": 2.414661888814123,
        "alt_km": 762.70626885813,
        "timestamp": "2025-12-26T19:22:39.294089+00:00",
        "meta_object_name": "IRIDIUM 33 DEB",
        "meta_object_id": "1997-051RJ",
        "meta_epoch": "2025-12-26T12:00:19.372608",
        "meta_mean_motion": 14.21136563,
        "meta_eccentricity": 0.0150773,
        "meta_inclination": 86.1027,
        "meta_ra_of_asc_node": 15.428,
        "meta_arg_of_pericenter": 234.4546,
        "meta_mean_anomaly": 280.2175,
        "meta_ephemeris_type": 0,
        "meta_classification_type": "U",
        "meta_norad_cat_id": 35680,
        "meta_element_set_no": 999,
        "meta_rev_at_epoch": 60896,
        "meta_bstar": 0.0033475108,
        "meta_mean_motion_dot": 8.18e-05,
        "meta_mean_motion_ddot": 0,
        "tle_line1": "1 35680U 97051RJ  25360.50022422  .00008180  00000+0  33475-2 0  9997",
        "tle_line2": "2 35680  86.1027  15.4280 0150773 234.4546 280.2175 14.21136563608965"
      },
      "geometry": {
        "type": "Point",
        "coordinates": [
          2.414661888814123,
          -72.9923285401412
        ]
      }
    },
    {
      "type": "Feature",
      "properties": {
        "norad_id": 35744,
        "name": "IRIDIUM 33 DEB",
        "group": "iridium-33-debris",
        "lat": -32.67780980985964,
        "lon": -43.280414513654456,
        "alt_km": 678.9190062076059,
        "timestamp": "2025-12-26T19:22:39.294100+00:00",
        "meta_object_name": "IRIDIUM 33 DEB",
        "meta_object_id": "1997-051RX",
        "meta_epoch": "2025-12-24T15:17:19.932000",
        "meta_mean_motion": 14.71145759,
        "meta_eccentricity": 0.00219113,
        "meta_inclination": 86.3301,
        "meta_ra_of_asc_node": 320.0594,
        "meta_arg_of_pericenter": 150.6894,
        "meta_mean_anomaly": 209.5557,
        "meta_ephemeris_type": 0,
        "meta_classification_type": "U",
        "meta_norad_cat_id": 35744,
        "meta_element_set_no": 999,
        "meta_rev_at_epoch": 87506,
        "meta_bstar": 0.0011850025,
        "meta_mean_motion_dot": 7.344e-05,
        "meta_mean_motion_ddot": 0,
        "tle_line1": "1 35744U 97051RX  25358.63703625  .00007344  00000+0  11850-2 0  9994",
        "tle_line2": "2 35744  86.3301 320.0594 0021911 150.6894 209.5557 14.71145759875069"
      },
      "geometry": {
        "type": "Point",
        "coordinates": [
          -43.280414513654456,
          -32.67780980985964
        ]
      }
    }
  ]
}